STARLINK-35560          
1 66059U 25235B   25312.16668980 -.02035448  00000+0 -33910-1 0  9994
2 66059  53.1606  92.4498 0000977  73.3788  63.4223 15.54587585  4315
STARLINK-35558          
1 66060U 25235C   25312.16668980 -.02032786  00000+0 -33859-1 0  9990
2 66060  53.1605  92.4443 0001152  65.8283  72.8876 15.54587511  4315
STARLINK-35566          
1 66061U 25235D   25312.16668980 -.02034048  00000+0 -33882-1 0  9990
2 66061  53.1604  92.4414 0001145  72.5661  68.0675 15.54588031  4312
STARLINK-35421          
1 66062U 25235E   25312.16668980 -.02004423  00000+0 -33365-1 0  9991
2 66062  53.1605  92.4366 0001016  51.9885  90.5790 15.54560892  4319
STARLINK-35562          
1 66063U 25235F   25312.16668980 -.02037508  00000+0 -33946-1 0  9997
2 66063  53.1605  92.4331 0001158  66.7334  77.7360 15.54587975  4313
STARLINK-35542          
1 66064U 25235G   25312.16668980 -.02035145  00000+0 -33901-1 0  9994
2 66064  53.1605  92.4279 0001127  67.5311  78.8512 15.54589026  4315
STARLINK-35375          
1 66065U 25235H   25312.16668980 -.02036791  00000+0 -33934-1 0  9999
2 66065  53.1605  92.4248 0001170  65.1452  83.1592 15.54587197  4314
STARLINK-35179          
1 66066U 25235J   25312.16668980 -.02030319  00000+0 -33818-1 0  9991
2 66066  53.1607  92.4215 0001069  54.9903  95.2286 15.54584016  4316
STARLINK-35401          
1 66067U 25235K   25312.16668980 -.02030198  00000+0 -33813-1 0  9992
2 66067  53.1607  92.4169 0001190  68.0734  84.0618 15.54585347  4276
STARLINK-35422          
1 66068U 25235L   25312.16668980 -.02037699  00000+0 -33947-1 0  9994
2 66068  53.1609  92.4129 0001111  67.8126  86.2362 15.54590464  4276
STARLINK-35279          
1 66069U 25235M   25312.16668980 -.02032613  00000+0 -33859-1 0  9998
2 66069  53.1608  92.4091 0001115  70.6577  85.3123 15.54585142  4317
STARLINK-35295          
1 66070U 25235N   25312.16668980 -.02027805  00000+0 -33771-1 0  9990
2 66070  53.1605  92.4016 0001310  62.8412  96.9631 15.54582275  4317
