CCSDS_OMM_VERS = 2.0
CREATION_DATE  = 
ORIGINATOR     = 

OBJECT_NAME    = STARLINK-35560
OBJECT_ID      = 2025-235B
CENTER_NAME    = EARTH
REF_FRAME      = TEME
TIME_SYSTEM    = UTC
MEAN_ELEMENT_THEORY = SGP/SGP4

EPOCH          = 2025-11-08T04:00:01.998720
MEAN_MOTION    = 15.54587585
ECCENTRICITY   = .0000977
INCLINATION    = 53.1606
RA_OF_ASC_NODE = 92.4498
ARG_OF_PERICENTER = 73.3788
MEAN_ANOMALY   = 63.4223

EPHEMERIS_TYPE = 0
CLASSIFICATION_TYPE = U
NORAD_CAT_ID   = 66059
ELEMENT_SET_NO = 999
REV_AT_EPOCH   = 431
BSTAR          = -.3391E-1
MEAN_MOTION_DOT = -.2035448E-1
MEAN_MOTION_DDOT = 0

CCSDS_OMM_VERS = 2.0
CREATION_DATE  = 
ORIGINATOR     = 

OBJECT_NAME    = STARLINK-35558
OBJECT_ID      = 2025-235C
CENTER_NAME    = EARTH
REF_FRAME      = TEME
TIME_SYSTEM    = UTC
MEAN_ELEMENT_THEORY = SGP/SGP4

EPOCH          = 2025-11-08T04:00:01.998720
MEAN_MOTION    = 15.54587511
ECCENTRICITY   = .0001152
INCLINATION    = 53.1605
RA_OF_ASC_NODE = 92.4443
ARG_OF_PERICENTER = 65.8283
MEAN_ANOMALY   = 72.8876

EPHEMERIS_TYPE = 0
CLASSIFICATION_TYPE = U
NORAD_CAT_ID   = 66060
ELEMENT_SET_NO = 999
REV_AT_EPOCH   = 431
BSTAR          = -.33859E-1
MEAN_MOTION_DOT = -.2032786E-1
MEAN_MOTION_DDOT = 0

CCSDS_OMM_VERS = 2.0
CREATION_DATE  = 
ORIGINATOR     = 

OBJECT_NAME    = STARLINK-35566
OBJECT_ID      = 2025-235D
CENTER_NAME    = EARTH
REF_FRAME      = TEME
TIME_SYSTEM    = UTC
MEAN_ELEMENT_THEORY = SGP/SGP4

EPOCH          = 2025-11-08T04:00:01.998720
MEAN_MOTION    = 15.54588031
ECCENTRICITY   = .0001145
INCLINATION    = 53.1604
RA_OF_ASC_NODE = 92.4414
ARG_OF_PERICENTER = 72.5661
MEAN_ANOMALY   = 68.0675

EPHEMERIS_TYPE = 0
CLASSIFICATION_TYPE = U
NORAD_CAT_ID   = 66061
ELEMENT_SET_NO = 999
REV_AT_EPOCH   = 431
BSTAR          = -.33882E-1
MEAN_MOTION_DOT = -.2034048E-1
MEAN_MOTION_DDOT = 0

CCSDS_OMM_VERS = 2.0
CREATION_DATE  = 
ORIGINATOR     = 

OBJECT_NAME    = STARLINK-35421
OBJECT_ID      = 2025-235E
CENTER_NAME    = EARTH
REF_FRAME      = TEME
TIME_SYSTEM    = UTC
MEAN_ELEMENT_THEORY = SGP/SGP4

EPOCH          = 2025-11-08T04:00:01.998720
MEAN_MOTION    = 15.54560892
ECCENTRICITY   = .0001016
INCLINATION    = 53.1605
RA_OF_ASC_NODE = 92.4366
ARG_OF_PERICENTER = 51.9885
MEAN_ANOMALY   = 90.5790

EPHEMERIS_TYPE = 0
CLASSIFICATION_TYPE = U
NORAD_CAT_ID   = 66062
ELEMENT_SET_NO = 999
REV_AT_EPOCH   = 431
BSTAR          = -.33365E-1
MEAN_MOTION_DOT = -.2004423E-1
MEAN_MOTION_DDOT = 0

CCSDS_OMM_VERS = 2.0
CREATION_DATE  = 
ORIGINATOR     = 

OBJECT_NAME    = STARLINK-35562
OBJECT_ID      = 2025-235F
CENTER_NAME    = EARTH
REF_FRAME      = TEME
TIME_SYSTEM    = UTC
MEAN_ELEMENT_THEORY = SGP/SGP4

EPOCH          = 2025-11-08T04:00:01.998720
MEAN_MOTION    = 15.54587975
ECCENTRICITY   = .0001158
INCLINATION    = 53.1605
RA_OF_ASC_NODE = 92.4331
ARG_OF_PERICENTER = 66.7334
MEAN_ANOMALY   = 77.7360

EPHEMERIS_TYPE = 0
CLASSIFICATION_TYPE = U
NORAD_CAT_ID   = 66063
ELEMENT_SET_NO = 999
REV_AT_EPOCH   = 431
BSTAR          = -.33946E-1
MEAN_MOTION_DOT = -.2037508E-1
MEAN_MOTION_DDOT = 0

CCSDS_OMM_VERS = 2.0
CREATION_DATE  = 
ORIGINATOR     = 

OBJECT_NAME    = STARLINK-35542
OBJECT_ID      = 2025-235G
CENTER_NAME    = EARTH
REF_FRAME      = TEME
TIME_SYSTEM    = UTC
MEAN_ELEMENT_THEORY = SGP/SGP4

EPOCH          = 2025-11-08T04:00:01.998720
MEAN_MOTION    = 15.54589026
ECCENTRICITY   = .0001127
INCLINATION    = 53.1605
RA_OF_ASC_NODE = 92.4279
ARG_OF_PERICENTER = 67.5311
MEAN_ANOMALY   = 78.8512

EPHEMERIS_TYPE = 0
CLASSIFICATION_TYPE = U
NORAD_CAT_ID   = 66064
ELEMENT_SET_NO = 999
REV_AT_EPOCH   = 431
BSTAR          = -.33901E-1
MEAN_MOTION_DOT = -.2035145E-1
MEAN_MOTION_DDOT = 0

CCSDS_OMM_VERS = 2.0
CREATION_DATE  = 
ORIGINATOR     = 

OBJECT_NAME    = STARLINK-35375
OBJECT_ID      = 2025-235H
CENTER_NAME    = EARTH
REF_FRAME      = TEME
TIME_SYSTEM    = UTC
MEAN_ELEMENT_THEORY = SGP/SGP4

EPOCH          = 2025-11-08T04:00:01.998720
MEAN_MOTION    = 15.54587197
ECCENTRICITY   = .000117
INCLINATION    = 53.1605
RA_OF_ASC_NODE = 92.4248
ARG_OF_PERICENTER = 65.1452
MEAN_ANOMALY   = 83.1592

EPHEMERIS_TYPE = 0
CLASSIFICATION_TYPE = U
NORAD_CAT_ID   = 66065
ELEMENT_SET_NO = 999
REV_AT_EPOCH   = 431
BSTAR          = -.33934E-1
MEAN_MOTION_DOT = -.2036791E-1
MEAN_MOTION_DDOT = 0

CCSDS_OMM_VERS = 2.0
CREATION_DATE  = 
ORIGINATOR     = 

OBJECT_NAME    = STARLINK-35179
OBJECT_ID      = 2025-235J
CENTER_NAME    = EARTH
REF_FRAME      = TEME
TIME_SYSTEM    = UTC
MEAN_ELEMENT_THEORY = SGP/SGP4

EPOCH          = 2025-11-08T04:00:01.998720
MEAN_MOTION    = 15.54584016
ECCENTRICITY   = .0001069
INCLINATION    = 53.1607
RA_OF_ASC_NODE = 92.4215
ARG_OF_PERICENTER = 54.9903
MEAN_ANOMALY   = 95.2286

EPHEMERIS_TYPE = 0
CLASSIFICATION_TYPE = U
NORAD_CAT_ID   = 66066
ELEMENT_SET_NO = 999
REV_AT_EPOCH   = 431
BSTAR          = -.33818E-1
MEAN_MOTION_DOT = -.2030319E-1
MEAN_MOTION_DDOT = 0

CCSDS_OMM_VERS = 2.0
CREATION_DATE  = 
ORIGINATOR     = 

OBJECT_NAME    = STARLINK-35401
OBJECT_ID      = 2025-235K
CENTER_NAME    = EARTH
REF_FRAME      = TEME
TIME_SYSTEM    = UTC
MEAN_ELEMENT_THEORY = SGP/SGP4

EPOCH          = 2025-11-08T04:00:01.998720
MEAN_MOTION    = 15.54585347
ECCENTRICITY   = .000119
INCLINATION    = 53.1607
RA_OF_ASC_NODE = 92.4169
ARG_OF_PERICENTER = 68.0734
MEAN_ANOMALY   = 84.0618

EPHEMERIS_TYPE = 0
CLASSIFICATION_TYPE = U
NORAD_CAT_ID   = 66067
ELEMENT_SET_NO = 999
REV_AT_EPOCH   = 427
BSTAR          = -.33813E-1
MEAN_MOTION_DOT = -.2030198E-1
MEAN_MOTION_DDOT = 0

CCSDS_OMM_VERS = 2.0
CREATION_DATE  = 
ORIGINATOR     = 

OBJECT_NAME    = STARLINK-35422
OBJECT_ID      = 2025-235L
CENTER_NAME    = EARTH
REF_FRAME      = TEME
TIME_SYSTEM    = UTC
MEAN_ELEMENT_THEORY = SGP/SGP4

EPOCH          = 2025-11-08T04:00:01.998720
MEAN_MOTION    = 15.54590464
ECCENTRICITY   = .0001111
INCLINATION    = 53.1609
RA_OF_ASC_NODE = 92.4129
ARG_OF_PERICENTER = 67.8126
MEAN_ANOMALY   = 86.2362

EPHEMERIS_TYPE = 0
CLASSIFICATION_TYPE = U
NORAD_CAT_ID   = 66068
ELEMENT_SET_NO = 999
REV_AT_EPOCH   = 427
BSTAR          = -.33947E-1
MEAN_MOTION_DOT = -.2037699E-1
MEAN_MOTION_DDOT = 0

CCSDS_OMM_VERS = 2.0
CREATION_DATE  = 
ORIGINATOR     = 

OBJECT_NAME    = STARLINK-35279
OBJECT_ID      = 2025-235M
CENTER_NAME    = EARTH
REF_FRAME      = TEME
TIME_SYSTEM    = UTC
MEAN_ELEMENT_THEORY = SGP/SGP4

EPOCH          = 2025-11-08T04:00:01.998720
MEAN_MOTION    = 15.54585142
ECCENTRICITY   = .0001115
INCLINATION    = 53.1608
RA_OF_ASC_NODE = 92.4091
ARG_OF_PERICENTER = 70.6577
MEAN_ANOMALY   = 85.3123

EPHEMERIS_TYPE = 0
CLASSIFICATION_TYPE = U
NORAD_CAT_ID   = 66069
ELEMENT_SET_NO = 999
REV_AT_EPOCH   = 431
BSTAR          = -.33859E-1
MEAN_MOTION_DOT = -.2032613E-1
MEAN_MOTION_DDOT = 0

CCSDS_OMM_VERS = 2.0
CREATION_DATE  = 
ORIGINATOR     = 

OBJECT_NAME    = STARLINK-35295
OBJECT_ID      = 2025-235N
CENTER_NAME    = EARTH
REF_FRAME      = TEME
TIME_SYSTEM    = UTC
MEAN_ELEMENT_THEORY = SGP/SGP4

EPOCH          = 2025-11-08T04:00:01.998720
MEAN_MOTION    = 15.54582275
ECCENTRICITY   = .000131
INCLINATION    = 53.1605
RA_OF_ASC_NODE = 92.4016
ARG_OF_PERICENTER = 62.8412
MEAN_ANOMALY   = 96.9631

EPHEMERIS_TYPE = 0
CLASSIFICATION_TYPE = U
NORAD_CAT_ID   = 66070
ELEMENT_SET_NO = 999
REV_AT_EPOCH   = 431
BSTAR          = -.33771E-1
MEAN_MOTION_DOT = -.2027805E-1
MEAN_MOTION_DDOT = 0

